NORAD_CAT_ID,OBJECT_NAME,OBJECT_TYPE,EPOCH,MEAN_MOTION,ECCENTRICITY,INCLINATION,RA_OF_ASC_NODE,ARG_OF_PERICENTER,MEAN_ANOMALY,BSTAR,MEAN_MOTION_DOT,MEAN_MOTION_DDOT,TLE_LINE0,TLE_LINE1,TLE_LINE2,SEMIMAJOR_AXIS,PERIOD,APOGEE,PERIGEE,DECAYED
55930.0,STARLINK-5896,PAYLOAD,2024-05-13 12:10:12,14.98319713,0.0003223,69.999,161.5679,275.3403,84.7388,-0.00026183,-3.215e-05,0.0,0 STARLINK-5896,1 55930U 23037S   24134.50708952 -.00003215  00000-0 -26183-3 0  9993,2 55930  69.9990 161.5679 0003223 275.3403  84.7388 14.98319713 64683,6950.225,96.108,574.33,569.85,0.0
55930.0,STARLINK-5896,PAYLOAD,2024-05-13 18:34:43,14.98336808,0.0003767,69.9974,160.8934,275.7844,84.2885,-0.00026381,-3.24e-05,0.0,0 STARLINK-5896,1 55930U 23037S   24134.77411838 -.00003240  00000-0 -26381-3 0  9994,2 55930  69.9974 160.8934 0003767 275.7844  84.2885 14.98336808 64723,6950.172,96.107,574.655,569.419,0.0
55930.0,STARLINK-5896,PAYLOAD,2024-05-14 04:11:32,14.98312452,0.0003702,69.998,159.8827,279.8028,80.2713,0.00024877,2.875e-05,0.0,0 STARLINK-5896,1 55930U 23037S   24135.17468499  .00002875  00000-0  24877-3 0  9993,2 55930  69.9980 159.8827 0003702 279.8028  80.2713 14.98312452 64788,6950.247,96.108,574.685,569.539,0.0
55930.0,STARLINK-5896,PAYLOAD,2024-05-14 10:36:04,14.98321824,0.0003576,69.9984,159.21,283.9311,76.1451,0.00031559,3.674e-05,0.0,0 STARLINK-5896,1 55930U 23037S   24135.44172037  .00003674  00000-0  31559-3 0  9996,2 55930  69.9984 159.2100 0003576 283.9311  76.1451 14.98321824 64821,6950.218,96.108,574.569,569.598,0.0
55930.0,STARLINK-5896,PAYLOAD,2024-05-14 18:36:44,14.98326587,0.0003417,69.9987,158.3687,282.7292,77.3484,0.00031463,3.663e-05,0.0,0 STARLINK-5896,1 55930U 23037S   24135.77551976  .00003663  00000-0  31463-3 0  9997,2 55930  69.9987 158.3687 0003417 282.7292  77.3484 14.98326587 64531,6950.203,96.107,574.443,569.694,0.0
55930.0,STARLINK-5896,PAYLOAD,2024-05-15 10:38:03,14.98354169,0.0003335,69.9985,156.6857,279.9399,80.1383,0.00051502,6.061e-05,0.0,0 STARLINK-5896,1 55930U 23037S   24136.44309606  .00006061  00000-0  51502-3 0  9994,2 55930  69.9985 156.6857 0003335 279.9399  80.1383 14.98354169 64979,6950.118,96.105,574.301,569.665,0.0
55930.0,STARLINK-5896,PAYLOAD,2024-05-16 04:15:33,14.98342945,0.0003439,69.9984,154.8341,272.7651,87.3115,6.8054e-05,7.19e-06,0.0,0 STARLINK-5896,1 55930U 23037S   24137.17746694  .00000719  00000-0  68054-4 0  9992,2 55930  69.9984 154.8341 0003439 272.7651  87.3115 14.98342945 65087,6950.153,96.106,574.408,569.628,0.0
55930.0,STARLINK-5896,PAYLOAD,2024-05-16 10:40:05,14.983385,0.0003533,69.9983,154.1609,277.594,82.4818,-1.4663e-05,-2.68e-06,0.0,0 STARLINK-5896,1 55930U 23037S   24137.44450982 -.00000268  00000-0 -14663-4 0  9992,2 55930  69.9983 154.1609 0003533 277.5940  82.4818 14.98338500 64789,6950.167,96.106,574.487,569.576,0.0
55930.0,STARLINK-5896,PAYLOAD,2024-05-16 18:40:45,14.9833677,0.0003273,69.9989,153.3191,275.7435,84.3351,-5.3675e-05,-7.34e-06,0.0,0 STARLINK-5896,1 55930U 23037S   24137.77830966 -.00000734  00000-0 -53675-4 0  9996,2 55930  69.9989 153.3191 0003273 275.7435  84.3351 14.98336770 65176,6950.172,96.107,574.312,569.762,0.0
55930.0,STARLINK-5896,PAYLOAD,2024-05-17 10:42:05,14.98342152,0.0003365,69.9987,151.6367,276.7967,83.2809,-8.4389e-05,-1.1e-05,0.0,0 STARLINK-5896,1 55930U 23037S   24138.44590220 -.00001100  00000-0 -84389-4 0  9991,2 55930  69.9987 151.6367 0003365 276.7967  83.2809 14.98342152 64933,6950.155,96.106,574.359,569.682,0.0
55930.0,STARLINK-5896,PAYLOAD,2024-05-17 18:42:46,14.98339846,0.0003184,69.9986,150.7952,270.8141,89.2653,-0.00013084,-1.654e-05,0.0,0 STARLINK-5896,1 55930U 23037S   24138.77970134 -.00001654  00000-0 -13084-3 0  9990,2 55930  69.9986 150.7952 0003184 270.8141  89.2653 14.98339846 65323,6950.162,96.106,574.24,569.815,0.0
55930.0,STARLINK-5896,PAYLOAD,2024-05-18 10:44:06,14.98330488,0.0003188,69.9985,149.1112,272.1833,87.8961,7.5273e-05,8.05e-06,0.0,0 STARLINK-5896,1 55930U 23037S   24139.44730096  .00000805  00000-0  75273-4 0  9990,2 55930  69.9985 149.1112 0003188 272.1833  87.8961 14.98330488 65081,6950.191,96.107,574.272,569.841,0.0
55930.0,STARLINK-5896,PAYLOAD,2024-05-19 04:21:35,14.9833075,0.0003148,69.9986,147.2597,272.3205,87.7594,1.1333e-05,4.2e-07,0.0,0 STARLINK-5896,1 55930U 23037S   24140.18166256  .00000042  00000-0  11333-4 0  9994,2 55930  69.9986 147.2597 0003148 272.3205  87.7594 14.98330750 65532,6950.191,96.107,574.243,569.868,0.0
55930.0,STARLINK-5896,PAYLOAD,2024-05-19 10:46:07,14.98331179,0.0003119,69.9986,146.5865,272.04,88.0402,2.6295e-05,2.21e-06,0.0,0 STARLINK-5896,1 55930U 23037S   24140.44870174  .00000221  00000-0  26295-4 0  9996,2 55930  69.9986 146.5865 0003119 272.0400  88.0402 14.98331179 65239,6950.189,96.107,574.222,569.886,0.0
55930.0,STARLINK-5896,PAYLOAD,2024-05-20 04:23:36,14.98331126,0.0003134,69.9985,144.735,271.3271,88.7529,3.5209e-05,3.27e-06,0.0,0 STARLINK-5896,1 55930U 23037S   24141.18306120  .00000327  00000-0  35209-4 0  9995,2 55930  69.9985 144.7350 0003134 271.3271  88.7529 14.98331126 65680,6950.189,96.107,574.233,569.876,0.0
55930.0,STARLINK-5896,PAYLOAD,2024-05-20 09:12:00,14.98331909,0.0003123,69.9985,144.2303,270.6987,89.3814,4.0799e-05,3.94e-06,0.0,0 STARLINK-5896,1 55930U 23037S   24141.38334032  .00000394  00000-0  40799-4 0  9994,2 55930  69.9985 144.2303 0003123 270.6987  89.3814 14.98331909 65376,6950.187,96.107,574.223,569.881,0.0
55930.0,STARLINK-5896,PAYLOAD,2024-05-21 04:25:37,14.98328413,0.0003092,69.9985,142.2103,269.0525,91.0279,1.7704e-05,1.18e-06,0.0,0 STARLINK-5896,1 55930U 23037S   24142.18446302  .00000118  00000-0  17704-4 0  9991,2 55930  69.9985 142.2103 0003092 269.0525  91.0279 14.98328413 65839,6950.198,96.107,574.212,569.914,0.0
55930.0,STARLINK-5896,PAYLOAD,2024-05-21 09:14:01,14.98328147,0.0003096,69.9985,141.7053,269.3134,90.7671,1.2759e-05,5.9e-07,0.0,0 STARLINK-5896,1 55930U 23037S   24142.38474349  .00000059  00000-0  12759-4 0  9994,2 55930  69.9985 141.7053 0003096 269.3134  90.7671 14.98328147 65522,6950.199,96.107,574.215,569.912,0.0
55930.0,STARLINK-5896,PAYLOAD,2024-05-22 04:27:38,14.98329497,0.0003107,69.9985,139.6857,267.6171,92.4632,1.0964e-05,3.8e-07,0.0,0 STARLINK-5896,1 55930U 23037S   24143.18586273  .00000038  00000-0  10964-4 0  9996,2 55930  69.9985 139.6857 0003107 267.6171  92.4632 14.98329497 65980,6950.194,96.107,574.219,569.9,0.0
55930.0,STARLINK-5896,PAYLOAD,2024-05-22 09:16:02,14.98329973,0.0003101,69.9985,139.1806,268.0268,92.0535,1.8802e-05,1.31e-06,0.0,0 STARLINK-5896,1 55930U 23037S   24143.38614224  .00000131  00000-0  18802-4 0  9999,2 55930  69.9985 139.1806 0003101 268.0268  92.0535 14.98329973 65678,6950.193,96.107,574.213,569.903,0.0
55930.0,STARLINK-5896,PAYLOAD,2024-05-23 04:29:39,14.98329269,0.0003156,69.9983,137.1603,267.8063,92.2734,4.438e-05,4.37e-06,0.0,0 STARLINK-5896,1 55930U 23037S   24144.18726194  .00000437  00000-0  44380-4 0  9997,2 55930  69.9983 137.1603 0003156 267.8063  92.2734 14.98329269 66132,6950.195,96.107,574.254,569.867,0.0
55930.0,STARLINK-5896,PAYLOAD,2024-05-23 09:18:03,14.98330795,0.0003129,69.9984,136.6554,267.5498,92.5303,6.002e-05,6.23e-06,0.0,0 STARLINK-5896,1 55930U 23037S   24144.38754051  .00000623  00000-0  60020-4 0  9998,2 55930  69.9984 136.6554 0003129 267.5498  92.5303 14.98330795 65827,6950.19,96.107,574.23,569.881,0.0
55930.0,STARLINK-5896,PAYLOAD,2024-05-24 04:31:40,14.98333473,0.0003098,69.9983,134.6358,268.0802,92.0002,6.6384e-05,6.99e-06,0.0,0 STARLINK-5896,1 55930U 23037S   24145.18865788  .00000699  00000-0  66384-4 0  9999,2 55930  69.9983 134.6358 0003098 268.0802  92.0002 14.98333473 66284,6950.182,96.107,574.2,569.894,0.0
55930.0,STARLINK-5896,PAYLOAD,2024-05-24 09:20:03,14.9834671,0.0003012,69.999,134.13,268.6358,91.4456,0.00017171,1.957e-05,0.0,0 STARLINK-5896,1 55930U 23037S   24145.38892511  .00001957  00000-0  17171-3 0  9992,2 55930  69.9990 134.1300 0003012 268.6358  91.4456 14.98346710 66310,6950.141,96.106,574.1,569.913,0.0
55930.0,STARLINK-5896,PAYLOAD,2024-05-25 04:33:41,14.98326517,0.0002886,69.9985,132.1111,269.3095,90.7733,-4.9105e-05,-6.79e-06,0.0,0 STARLINK-5896,1 55930U 23037S   24146.19006267 -.00000679  00000-0 -49105-4 0  9992,2 55930  69.9985 132.1111 0002886 269.3095  90.7733 14.98326517 66432,6950.204,96.107,574.074,570.063,0.0
55930.0,STARLINK-5896,PAYLOAD,2024-05-25 09:22:05,14.98324837,0.0003013,69.9981,131.6062,268.6376,91.4438,-5.864e-05,-7.93e-06,0.0,0 STARLINK-5896,1 55930U 23037S   24146.39034439 -.00000793  00000-0 -58640-4 0  9997,2 55930  69.9981 131.6062 0003013 268.6376  91.4438 14.98324837 66123,6950.209,96.107,574.168,569.98,0.0
55930.0,STARLINK-5896,PAYLOAD,2024-05-26 04:35:42,14.98341726,0.0002677,69.9985,129.5862,261.8311,98.2544,-0.00025619,-3.149e-05,0.0,0 STARLINK-5896,1 55930U 23037S   24147.19146037 -.00003149  00000-0 -25619-3 0  9991,2 55930  69.9985 129.5862 0002677 261.8311  98.2544 14.98341726 66589,6950.157,96.106,573.882,570.161,0.0
55930.0,STARLINK-5896,PAYLOAD,2024-05-26 07:47:58,14.98330025,0.00028,69.9983,129.2485,268.9115,91.1723,-1.7158e-05,-2.98e-06,0.0,0 STARLINK-5896,1 55930U 23037S   24147.32498136 -.00000298  00000-0 -17158-4 0  9998,2 55930  69.9983 129.2485 0002800 268.9115  91.1723 14.98330025 66269,6950.193,96.107,574.004,570.112,0.0
55930.0,STARLINK-5896,PAYLOAD,2024-05-26 22:13:10,14.98328012,0.0002106,70.0004,127.7377,246.7853,113.3084,0.00020383,2.34e-05,0.0,0 STARLINK-5896,1 55930U 23037S   24147.92581876  .00002340  00000-0  20383-3 0  9999,2 55930  70.0004 127.7377 0002106 246.7853 113.3084 14.98328012 66351,6950.199,96.107,573.528,570.6,0.0
55930.0,STARLINK-5896,PAYLOAD,2024-05-27 04:37:42,14.98328947,0.0002407,70.0002,127.0644,233.3307,126.7631,0.00016965,1.932e-05,0.0,0 STARLINK-5896,1 55930U 23037S   24148.19285824  .00001932  00000-0  16965-3 0  9990,2 55930  70.0002 127.0644 0002407 233.3307 126.7631 14.98328947 66734,6950.196,96.107,573.734,570.388,0.0
